YAM-7                   
1 60504U 24149AN  26068.71799904  .00009009  00000+0  30984-3 0  9997
2 60504  97.3828 149.4631 0001973 296.5121  63.5918 15.30304554 86835
STARLINK-36065          
1 66898U 25283W   26068.17965560  .00017593  00000+0  60493-3 0  9997
2 66898  53.1607  26.7076 0001235  87.1727 272.9415 15.30188169 15763
