[{"OBJECT_NAME":"YAM-7","OBJECT_ID":"2024-149AN","EPOCH":"2026-03-09T17:13:55.117920","MEAN_MOTION":15.30304554,"ECCENTRICITY":0.00019733,"INCLINATION":97.3828,"RA_OF_ASC_NODE":149.4631,"ARG_OF_PERICENTER":296.5121,"MEAN_ANOMALY":63.5918,"EPHEMERIS_TYPE":0,"CLASSIFICATION_TYPE":"U","NORAD_CAT_ID":60504,"ELEMENT_SET_NO":999,"REV_AT_EPOCH":8683,"BSTAR":0.00030984439,"MEAN_MOTION_DOT":9.009e-5,"MEAN_MOTION_DDOT":0},{"OBJECT_NAME":"STARLINK-36065","OBJECT_ID":"2025-283W","EPOCH":"2026-03-09T04:18:42.243840","MEAN_MOTION":15.30188169,"ECCENTRICITY":0.00012352,"INCLINATION":53.1607,"RA_OF_ASC_NODE":26.7076,"ARG_OF_PERICENTER":87.1727,"MEAN_ANOMALY":272.9415,"EPHEMERIS_TYPE":0,"CLASSIFICATION_TYPE":"U","NORAD_CAT_ID":66898,"ELEMENT_SET_NO":999,"REV_AT_EPOCH":1576,"BSTAR":0.00060492587,"MEAN_MOTION_DOT":0.00017593,"MEAN_MOTION_DDOT":0}]
